[{"sat":{"ORDINAL":"1","COMMENT":"GENERATED VIA SPACETRACK.ORG API","ORIGINATOR":"JSPOC","NORAD_CAT_ID":"7530","OBJECT_NAME":"OSCAR 7","OBJECT_TYPE":"PAYLOAD","CLASSIFICATION_TYPE":"U","INTLDES":"74089B","EPOCH":"2018-10-12 11:53:15","EPOCH_MICROSECONDS":"912384","MEAN_MOTION":"12.53634793","ECCENTRICITY":"0.0012409","INCLINATION":"101.7033","RA_OF_ASC_NODE":"251.1197","ARG_OF_PERICENTER":"107.2908","MEAN_ANOMALY":"6.7641","EPHEMERIS_TYPE":"0","ELEMENT_SET_NO":"999","REV_AT_EPOCH":"929","BSTAR":"6.091e-06","MEAN_MOTION_DOT":"-4.4e-07","MEAN_MOTION_DDOT":"0","FILE":"2344048","TLE_LINE0":"0 OSCAR 7","TLE_LINE1":"1  7530U 74089B   18285.49532306 -.00000044  00000-0  60910-5 0  9999","TLE_LINE2":"2  7530 101.7033 251.1197 0012409 107.2908   6.7641 12.53634793  9298","OBJECT_ID":"1974-089B","OBJECT_NUMBER":"7530","SEMIMAJOR_AXIS":"7827.465","PERIOD":"114.865","APOGEE":"1459.043","PERIGEE":"1439.617"},"latlng":{"lat":-67.05542771815709,"lng":-135.24036541816164}},{"sat":{"ORDINAL":"1","COMMENT":"GENERATED VIA SPACETRACK.ORG API","ORIGINATOR":"JSPOC","NORAD_CAT_ID":"7530","OBJECT_NAME":"OSCAR 7","OBJECT_TYPE":"PAYLOAD","CLASSIFICATION_TYPE":"U","INTLDES":"74089B","EPOCH":"2018-10-12 11:53:15","EPOCH_MICROSECONDS":"912384","MEAN_MOTION":"12.53634793","ECCENTRICITY":"0.0012409","INCLINATION":"101.7033","RA_OF_ASC_NODE":"251.1197","ARG_OF_PERICENTER":"107.2908","MEAN_ANOMALY":"6.7641","EPHEMERIS_TYPE":"0","ELEMENT_SET_NO":"999","REV_AT_EPOCH":"929","BSTAR":"6.091e-06","MEAN_MOTION_DOT":"-4.4e-07","MEAN_MOTION_DDOT":"0","FILE":"2344048","TLE_LINE0":"0 OSCAR 7","TLE_LINE1":"1  7530U 74089B   18285.49532306 -.00000044  00000-0  60910-5 0  9999","TLE_LINE2":"2  7530 101.7033 251.1197 0012409 107.2908   6.7641 12.53634793  9298","OBJECT_ID":"1974-089B","OBJECT_NUMBER":"7530","SEMIMAJOR_AXIS":"7827.465","PERIOD":"114.865","APOGEE":"1459.043","PERIGEE":"1439.617"},"latlng":{"lat":-49.99783331897876,"lng":-154.7132610031847}},{"sat":{"ORDINAL":"1","COMMENT":"GENERATED VIA SPACETRACK.ORG API","ORIGINATOR":"JSPOC","NORAD_CAT_ID":"7530","OBJECT_NAME":"OSCAR 7","OBJECT_TYPE":"PAYLOAD","CLASSIFICATION_TYPE":"U","INTLDES":"74089B","EPOCH":"2018-10-12 11:53:15","EPOCH_MICROSECONDS":"912384","MEAN_MOTION":"12.53634793","ECCENTRICITY":"0.0012409","INCLINATION":"101.7033","RA_OF_ASC_NODE":"251.1197","ARG_OF_PERICENTER":"107.2908","MEAN_ANOMALY":"6.7641","EPHEMERIS_TYPE":"0","ELEMENT_SET_NO":"999","REV_AT_EPOCH":"929","BSTAR":"6.091e-06","MEAN_MOTION_DOT":"-4.4e-07","MEAN_MOTION_DDOT":"0","FILE":"2344048","TLE_LINE0":"0 OSCAR 7","TLE_LINE1":"1  7530U 74089B   18285.49532306 -.00000044  00000-0  60910-5 0  9999","TLE_LINE2":"2  7530 101.7033 251.1197 0012409 107.2908   6.7641 12.53634793  9298","OBJECT_ID":"1974-089B","OBJECT_NUMBER":"7530","SEMIMAJOR_AXIS":"7827.465","PERIOD":"114.865","APOGEE":"1459.043","PERIGEE":"1439.617"},"latlng":{"lat":6.361899382230679,"lng":-80.39025435047421}},{"sat":{"ORDINAL":"1","COMMENT":"GENERATED VIA SPACETRACK.ORG API","ORIGINATOR":"JSPOC","NORAD_CAT_ID":"7530","OBJECT_NAME":"OSCAR 7","OBJECT_TYPE":"PAYLOAD","CLASSIFICATION_TYPE":"U","INTLDES":"74089B","EPOCH":"2018-10-12 11:53:15","EPOCH_MICROSECONDS":"912384","MEAN_MOTION":"12.53634793","ECCENTRICITY":"0.0012409","INCLINATION":"101.7033","RA_OF_ASC_NODE":"251.1197","ARG_OF_PERICENTER":"107.2908","MEAN_ANOMALY":"6.7641","EPHEMERIS_TYPE":"0","ELEMENT_SET_NO":"999","REV_AT_EPOCH":"929","BSTAR":"6.091e-06","MEAN_MOTION_DOT":"-4.4e-07","MEAN_MOTION_DDOT":"0","FILE":"2344048","TLE_LINE0":"0 OSCAR 7","TLE_LINE1":"1  7530U 74089B   18285.49532306 -.00000044  00000-0  60910-5 0  9999","TLE_LINE2":"2  7530 101.7033 251.1197 0012409 107.2908   6.7641 12.53634793  9298","OBJECT_ID":"1974-089B","OBJECT_NUMBER":"7530","SEMIMAJOR_AXIS":"7827.465","PERIOD":"114.865","APOGEE":"1459.043","PERIGEE":"1439.617"},"latlng":{"lat":-14.80273139799508,"lng":-21.120834575108233}},{"sat":{"ORDINAL":"1","COMMENT":"GENERATED VIA SPACETRACK.ORG API","ORIGINATOR":"JSPOC","NORAD_CAT_ID":"7530","OBJECT_NAME":"OSCAR 7","OBJECT_TYPE":"PAYLOAD","CLASSIFICATION_TYPE":"U","INTLDES":"74089B","EPOCH":"2018-10-12 11:53:15","EPOCH_MICROSECONDS":"912384","MEAN_MOTION":"12.53634793","ECCENTRICITY":"0.0012409","INCLINATION":"101.7033","RA_OF_ASC_NODE":"251.1197","ARG_OF_PERICENTER":"107.2908","MEAN_ANOMALY":"6.7641","EPHEMERIS_TYPE":"0","ELEMENT_SET_NO":"999","REV_AT_EPOCH":"929","BSTAR":"6.091e-06","MEAN_MOTION_DOT":"-4.4e-07","MEAN_MOTION_DDOT":"0","FILE":"2344048","TLE_LINE0":"0 OSCAR 7","TLE_LINE1":"1  7530U 74089B   18285.49532306 -.00000044  00000-0  60910-5 0  9999","TLE_LINE2":"2  7530 101.7033 251.1197 0012409 107.2908   6.7641 12.53634793  9298","OBJECT_ID":"1974-089B","OBJECT_NUMBER":"7530","SEMIMAJOR_AXIS":"7827.465","PERIOD":"114.865","APOGEE":"1459.043","PERIGEE":"1439.617"},"latlng":{"lat":56.596919762896086,"lng":128.62600095363874}},{"sat":{"ORDINAL":"1","COMMENT":"GENERATED VIA SPACETRACK.ORG API","ORIGINATOR":"JSPOC","NORAD_CAT_ID":"7530","OBJECT_NAME":"OSCAR 7","OBJECT_TYPE":"PAYLOAD","CLASSIFICATION_TYPE":"U","INTLDES":"74089B","EPOCH":"2018-10-12 11:53:15","EPOCH_MICROSECONDS":"912384","MEAN_MOTION":"12.53634793","ECCENTRICITY":"0.0012409","INCLINATION":"101.7033","RA_OF_ASC_NODE":"251.1197","ARG_OF_PERICENTER":"107.2908","MEAN_ANOMALY":"6.7641","EPHEMERIS_TYPE":"0","ELEMENT_SET_NO":"999","REV_AT_EPOCH":"929","BSTAR":"6.091e-06","MEAN_MOTION_DOT":"-4.4e-07","MEAN_MOTION_DDOT":"0","FILE":"2344048","TLE_LINE0":"0 OSCAR 7","TLE_LINE1":"1  7530U 74089B   18285.49532306 -.00000044  00000-0  60910-5 0  9999","TLE_LINE2":"2  7530 101.7033 251.1197 0012409 107.2908   6.7641 12.53634793  9298","OBJECT_ID":"1974-089B","OBJECT_NUMBER":"7530","SEMIMAJOR_AXIS":"7827.465","PERIOD":"114.865","APOGEE":"1459.043","PERIGEE":"1439.617"},"latlng":{"lat":-33.36687059589328,"lng":113.6324171754915}},{"sat":{"ORDINAL":"1","COMMENT":"GENERATED VIA SPACETRACK.ORG API","ORIGINATOR":"JSPOC","NORAD_CAT_ID":"7530","OBJECT_NAME":"OSCAR 7","OBJECT_TYPE":"PAYLOAD","CLASSIFICATION_TYPE":"U","INTLDES":"74089B","EPOCH":"2018-10-12 11:53:15","EPOCH_MICROSECONDS":"912384","MEAN_MOTION":"12.53634793","ECCENTRICITY":"0.0012409","INCLINATION":"101.7033","RA_OF_ASC_NODE":"251.1197","ARG_OF_PERICENTER":"107.2908","MEAN_ANOMALY":"6.7641","EPHEMERIS_TYPE":"0","ELEMENT_SET_NO":"999","REV_AT_EPOCH":"929","BSTAR":"6.091e-06","MEAN_MOTION_DOT":"-4.4e-07","MEAN_MOTION_DDOT":"0","FILE":"2344048","TLE_LINE0":"0 OSCAR 7","TLE_LINE1":"1  7530U 74089B   18285.49532306 -.00000044  00000-0  60910-5 0  9999","TLE_LINE2":"2  7530 101.7033 251.1197 0012409 107.2908   6.7641 12.53634793  9298","OBJECT_ID":"1974-089B","OBJECT_NUMBER":"7530","SEMIMAJOR_AXIS":"7827.465","PERIOD":"114.865","APOGEE":"1459.043","PERIGEE":"1439.617"},"latlng":{"lat":44.12991236014004,"lng":-58.88148381564986}},{"sat":{"ORDINAL":"1","COMMENT":"GENERATED VIA SPACETRACK.ORG API","ORIGINATOR":"JSPOC","NORAD_CAT_ID":"7530","OBJECT_NAME":"OSCAR 7","OBJECT_TYPE":"PAYLOAD","CLASSIFICATION_TYPE":"U","INTLDES":"74089B","EPOCH":"2018-10-12 11:53:15","EPOCH_MICROSECONDS":"912384","MEAN_MOTION":"12.53634793","ECCENTRICITY":"0.0012409","INCLINATION":"101.7033","RA_OF_ASC_NODE":"251.1197","ARG_OF_PERICENTER":"107.2908","MEAN_ANOMALY":"6.7641","EPHEMERIS_TYPE":"0","ELEMENT_SET_NO":"999","REV_AT_EPOCH":"929","BSTAR":"6.091e-06","MEAN_MOTION_DOT":"-4.4e-07","MEAN_MOTION_DDOT":"0","FILE":"2344048","TLE_LINE0":"0 OSCAR 7","TLE_LINE1":"1  7530U 74089B   18285.49532306 -.00000044  00000-0  60910-5 0  9999","TLE_LINE2":"2  7530 101.7033 251.1197 0012409 107.2908   6.7641 12.53634793  9298","OBJECT_ID":"1974-089B","OBJECT_NUMBER":"7530","SEMIMAJOR_AXIS":"7827.465","PERIOD":"114.865","APOGEE":"1459.043","PERIGEE":"1439.617"},"latlng":{"lat":-71.48179224376442,"lng":29.56258058970775}},{"sat":{"ORDINAL":"1","COMMENT":"GENERATED VIA SPACETRACK.ORG API","ORIGINATOR":"JSPOC","NORAD_CAT_ID":"7530","OBJECT_NAME":"OSCAR 7","OBJECT_TYPE":"PAYLOAD","CLASSIFICATION_TYPE":"U","INTLDES":"74089B","EPOCH":"2018-10-12 11:53:15","EPOCH_MICROSECONDS":"912384","MEAN_MOTION":"12.53634793","ECCENTRICITY":"0.0012409","INCLINATION":"101.7033","RA_OF_ASC_NODE":"251.1197","ARG_OF_PERICENTER":"107.2908","MEAN_ANOMALY":"6.7641","EPHEMERIS_TYPE":"0","ELEMENT_SET_NO":"999","REV_AT_EPOCH":"929","BSTAR":"6.091e-06","MEAN_MOTION_DOT":"-4.4e-07","MEAN_MOTION_DDOT":"0","FILE":"2344048","TLE_LINE0":"0 OSCAR 7","TLE_LINE1":"1  7530U 74089B   18285.49532306 -.00000044  00000-0  60910-5 0  9999","TLE_LINE2":"2  7530 101.7033 251.1197 0012409 107.2908   6.7641 12.53634793  9298","OBJECT_ID":"1974-089B","OBJECT_NUMBER":"7530","SEMIMAJOR_AXIS":"7827.465","PERIOD":"114.865","APOGEE":"1459.043","PERIGEE":"1439.617"},"latlng":{"lat":-37.3984046161933,"lng":9.691055666319244}},{"sat":{"ORDINAL":"1","COMMENT":"GENERATED VIA SPACETRACK.ORG API","ORIGINATOR":"JSPOC","NORAD_CAT_ID":"7530","OBJECT_NAME":"OSCAR 7","OBJECT_TYPE":"PAYLOAD","CLASSIFICATION_TYPE":"U","INTLDES":"74089B","EPOCH":"2018-10-12 11:53:15","EPOCH_MICROSECONDS":"912384","MEAN_MOTION":"12.53634793","ECCENTRICITY":"0.0012409","INCLINATION":"101.7033","RA_OF_ASC_NODE":"251.1197","ARG_OF_PERICENTER":"107.2908","MEAN_ANOMALY":"6.7641","EPHEMERIS_TYPE":"0","ELEMENT_SET_NO":"999","REV_AT_EPOCH":"929","BSTAR":"6.091e-06","MEAN_MOTION_DOT":"-4.4e-07","MEAN_MOTION_DDOT":"0","FILE":"2344048","TLE_LINE0":"0 OSCAR 7","TLE_LINE1":"1  7530U 74089B   18285.49532306 -.00000044  00000-0  60910-5 0  9999","TLE_LINE2":"2  7530 101.7033 251.1197 0012409 107.2908   6.7641 12.53634793  9298","OBJECT_ID":"1974-089B","OBJECT_NUMBER":"7530","SEMIMAJOR_AXIS":"7827.465","PERIOD":"114.865","APOGEE":"1459.043","PERIGEE":"1439.617"},"latlng":{"lat":-11.444350532762561,"lng":-49.783073204774325}}]